{"type":"FeatureCollection","features":[{"type":"Feature","id":"060244e7-b7db-4c3b-a438-26e07b7dc156","geometry":{"type":"Polygon","coordinates":[[[19002, 13099],[18800, 13119],[18605, 13178],[18426, 13273],[18269, 13402],[18140, 13559],[18045, 13738],[17986, 13933],[17966, 14135],[17986, 14337],[18045, 14532],[18140, 14711],[18269, 14868],[18426, 14997],[18605, 15092],[18800, 15151],[18838.92, 15154.85],[18838.94, 15154.86],[18965, 15193],[19167, 15213],[19706, 15213],[19771, 15211],[19836, 15205],[19900, 15195],[19964, 15181],[20026, 15163],[20088, 15141],[20147, 15115],[20205, 15085],[20261, 15052],[20273.01, 15043.77],[20282, 15039],[20292.18, 15030.64],[20315, 15015],[20367, 14976],[20415, 14932],[20427.79, 14919.21],[20439, 14910],[20448.21, 14898.79],[20461, 14886],[20505, 14838],[20544, 14786],[20559.64, 14763.18],[20568, 14753],[20572.77, 14744.01],[20581, 14732],[20614, 14676],[20644, 14618],[20670, 14559],[20692, 14497],[20710, 14435],[20724, 14371],[20734, 14307],[20740, 14242],[20742, 14177],[20740, 14112],[20734, 14047],[20724, 13983],[20710, 13919],[20692, 13857],[20670, 13795],[20644, 13736],[20614, 13678],[20581, 13622],[20572.77, 13609.99],[20568, 13601],[20559.64, 13590.82],[20544, 13568],[20505, 13516],[20461, 13468],[20448.21, 13455.21],[20439, 13444],[20427.79, 13434.79],[20415, 13422],[20367, 13378],[20315, 13339],[20292.18, 13323.36],[20282, 13315],[20273.01, 13310.23],[20261, 13302],[20205, 13269],[20147, 13239],[20088, 13213],[20026, 13191],[19964, 13173],[19900, 13159],[19836, 13149],[19771, 13143],[19706, 13141],[19441.71, 13141],[19369, 13119],[19167, 13099],[19002, 13099]]]},"properties":{"objectType":"annotation","classification":{"name":"Tumor","color":[200, 0, 0]}}}]}