{"type":"FeatureCollection","features":[{"type":"Feature","id":"f8dda634-4308-43fe-9de4-3b6056e9ce83","geometry":{"type":"Polygon","coordinates":[[[2248, 4599],[2242, 4600],[2236, 4601],[2194, 4601],[2188, 4602],[2185, 4603],[2182, 4604],[2179, 4605],[2178, 4605.33],[2174, 4606],[2173, 4606.33],[2169, 4607],[2163, 4609],[2161, 4610],[2158, 4611],[2157.28, 4611.57],[2156, 4612],[2155.29, 4612.57],[2154, 4613],[2152, 4614],[2151, 4614.67],[2150, 4615],[2149.29, 4615.57],[2148, 4616],[2143, 4620],[2142.29, 4620.57],[2141, 4621],[2137.43, 4623.86],[2137.42, 4623.86],[2137, 4624],[2134, 4625],[2131, 4626],[2129, 4627],[2128, 4627.67],[2127, 4628],[2126.29, 4628.57],[2125, 4629],[2122, 4630],[2119.86, 4631.71],[2119, 4632],[2116.86, 4633.71],[2116, 4634],[2111, 4638],[2110.56, 4638.56],[2110.54, 4638.58],[2110, 4639],[2108.22, 4641.23],[2108.21, 4641.24],[2108.14, 4641.29],[2106, 4642],[2105.29, 4642.57],[2104, 4643],[2103.29, 4643.57],[2102, 4644],[2099, 4645],[2097, 4646],[2096.01, 4646.66],[2096, 4646.67],[2095, 4647],[2094.99, 4647],[2092, 4648],[2091.29, 4648.57],[2090, 4649],[2087.86, 4650.71],[2087, 4651],[2082, 4655],[2081.56, 4655.56],[2081.54, 4655.58],[2081, 4656],[2080.56, 4656.56],[2080.54, 4656.58],[2080, 4657],[2079, 4658],[2074, 4662],[2071.78, 4664.78],[2071.77, 4664.79],[2069, 4667],[2065, 4672],[2064.71, 4672.86],[2063, 4675],[2059, 4680],[2058.86, 4680.43],[2058.85, 4680.44],[2056, 4684],[2055, 4687],[2054.57, 4688.29],[2054, 4689],[2053.43, 4690.71],[2050, 4695],[2049.57, 4696.29],[2049, 4697],[2045, 4702],[2044.57, 4703.29],[2044, 4704],[2043.71, 4704.86],[2042, 4707],[2041.57, 4708.29],[2041, 4709],[2037, 4721],[2037, 4725],[2037, 4726],[2037, 4727],[2037, 4728],[2037, 4729],[2037, 4730],[2037, 4734],[2041, 4746],[2041.57, 4746.71],[2042, 4748],[2046, 4753],[2047.67, 4754.33],[2048.58, 4755.47],[2049, 4758],[2053, 4770],[2057, 4775],[2062, 4779],[2065, 4780],[2065.57, 4780.71],[2066, 4782],[2067, 4784],[2067.66, 4784.99],[2067.67, 4785],[2068, 4786],[2068, 4786.01],[2069, 4789],[2069.57, 4789.71],[2070, 4791],[2074, 4796],[2075.11, 4796.89],[2076, 4798],[2076.56, 4798.44],[2076.58, 4798.46],[2077, 4799],[2077.56, 4799.44],[2077.58, 4799.46],[2078, 4800],[2083, 4804],[2085.22, 4805.78],[2087, 4808],[2092, 4812],[2094.22, 4813.78],[2096, 4816],[2096.56, 4816.44],[2096.58, 4816.46],[2097, 4817],[2102, 4821],[2103.29, 4821.43],[2104, 4822],[2105.29, 4822.43],[2106, 4823],[2106.43, 4823.14],[2106.44, 4823.15],[2110, 4826],[2111.71, 4826.57],[2116, 4830],[2116.86, 4830.29],[2119, 4832],[2119.86, 4832.29],[2122, 4834],[2122.86, 4834.29],[2125, 4836],[2125.43, 4836.14],[2125.44, 4836.15],[2129, 4839],[2141, 4843],[2143, 4843.33],[2143.02, 4843.34],[2145, 4844],[2151, 4845],[2154, 4845],[2160, 4846],[2164, 4846],[2166, 4846.33],[2166.02, 4846.34],[2171, 4848],[2174, 4849],[2178, 4849.67],[2179, 4850],[2184.99, 4851],[2185, 4851],[2185.86, 4851.29],[2188, 4853],[2189.29, 4853.43],[2190, 4854],[2193, 4855],[2193.86, 4855.29],[2194.82, 4856.06],[2195, 4856],[2201, 4856],[2207, 4857],[2209, 4857],[2215, 4859],[2222, 4859],[2228, 4860],[2237, 4863],[2251, 4863],[2257, 4862],[2271, 4862],[2279, 4859.33],[2281, 4859],[2290, 4859],[2296, 4858],[2307, 4858],[2313, 4856],[2331, 4856],[2337, 4855],[2339, 4855],[2345, 4854],[2348, 4853],[2349, 4853],[2361, 4849],[2361.71, 4848.43],[2363, 4848],[2366.57, 4845.14],[2367, 4845],[2370.57, 4842.14],[2370.58, 4842.14],[2371, 4842],[2376, 4838],[2376.44, 4837.44],[2376.46, 4837.42],[2377, 4837],[2377.44, 4836.44],[2377.46, 4836.42],[2378, 4836],[2379, 4835],[2379.72, 4834.1],[2380, 4834],[2385, 4830],[2389, 4825],[2389.14, 4824.57],[2389.15, 4824.56],[2392, 4821],[2392.14, 4820.57],[2392.15, 4820.56],[2395, 4817],[2396, 4814],[2397, 4811],[2397.86, 4808.43],[2399, 4807],[2399.43, 4805.71],[2400, 4805],[2401.86, 4799.43],[2403, 4798],[2404, 4795],[2404.43, 4793.71],[2405, 4793],[2406, 4790],[2408, 4784],[2408.43, 4782.71],[2409, 4782],[2413, 4770],[2413, 4767],[2414, 4761],[2414, 4759],[2414, 4758],[2414, 4757],[2414, 4756],[2414, 4754],[2414, 4753],[2414, 4752],[2414, 4750],[2414, 4749],[2414, 4748],[2414, 4747],[2414, 4746],[2414, 4745],[2414, 4744],[2409, 4740],[2405, 4735],[2401, 4723],[2400, 4717],[2400, 4716],[2398, 4710],[2397.57, 4708.71],[2397, 4708],[2396, 4707],[2395, 4705.5],[2393, 4703],[2392.67, 4702],[2392.66, 4701.99],[2392, 4701],[2391, 4699],[2389, 4693],[2388, 4687],[2388, 4685],[2388, 4684],[2388, 4683],[2388, 4682],[2388, 4681],[2388, 4679],[2388, 4678],[2387, 4676],[2386.34, 4675.01],[2386.33, 4675],[2386, 4674],[2384.29, 4671.86],[2383, 4668],[2382, 4666],[2380, 4660],[2377.14, 4656.43],[2377.14, 4656.42],[2377, 4656],[2373, 4651],[2370.78, 4649.22],[2369, 4647],[2368.44, 4646.56],[2368.42, 4646.54],[2368, 4646],[2367.44, 4645.56],[2367.42, 4645.54],[2367, 4645],[2362, 4641],[2359.43, 4640.14],[2358, 4639],[2356.71, 4638.57],[2356, 4638],[2354.72, 4637.57],[2354, 4637],[2351.43, 4636.14],[2350, 4635],[2347.27, 4634.09],[2344, 4630],[2341.22, 4627.78],[2341.21, 4627.77],[2339, 4625],[2334, 4621],[2333.73, 4620.91],[2333, 4620],[2328, 4616],[2326.71, 4615.57],[2326, 4615],[2323, 4614],[2314, 4611],[2311, 4610],[2309, 4609.67],[2308.98, 4609.66],[2307, 4609],[2306.14, 4608.71],[2304, 4607],[2292, 4603],[2290, 4602.67],[2289.98, 4602.66],[2285, 4601],[2283, 4600.67],[2282.98, 4600.66],[2281, 4600],[2275, 4599],[2248, 4599]]]},"properties":{"objectType":"annotation","classification":{"name":"mucosa","color":[81, 24, 52]}}},{"type":"Feature","id":"6a843bd8-2de5-4682-8e63-a44fc1773179","geometry":{"type":"Polygon","coordinates":[[[2351.01, 4599],[2350, 4602],[2349, 4608],[2349, 4609],[2350, 4615],[2354, 4627],[2358, 4632],[2358.56, 4632.44],[2358.58, 4632.46],[2359, 4633],[2359.56, 4633.44],[2359.58, 4633.46],[2360, 4634],[2365, 4638],[2365.86, 4638.29],[2368, 4640],[2369.29, 4640.43],[2370, 4641],[2372.62, 4641.87],[2373, 4643],[2374.71, 4645.14],[2375, 4646],[2379, 4651],[2384, 4655],[2387, 4656],[2388, 4657],[2390, 4658],[2392, 4658],[2394, 4659],[2394.67, 4659],[2397, 4666],[2397.57, 4666.71],[2398, 4668],[2398.57, 4668.72],[2400, 4673],[2401.14, 4674.43],[2402, 4677],[2402.57, 4677.71],[2403, 4679],[2403.84, 4680.06],[2404, 4681],[2408, 4693],[2408.57, 4693.72],[2411, 4701],[2411.57, 4701.71],[2412, 4703],[2413, 4709],[2416.33, 4718.98],[2417, 4723],[2418.67, 4728],[2419, 4730],[2419, 4731],[2419, 4733],[2419, 4734],[2419, 4735],[2419, 4736],[2419, 4738],[2419, 4739],[2419, 4740],[2419, 4742],[2419, 4743],[2419, 4744],[2419, 4745],[2419, 4747],[2419, 4748],[2419, 4749],[2419, 4750],[2419, 4752],[2419, 4753],[2419, 4754],[2419, 4756],[2419, 4757],[2419, 4758],[2419, 4759],[2419, 4760],[2418, 4766],[2416, 4772],[2416, 4774],[2415.67, 4776],[2412, 4787],[2412, 4790],[2411.33, 4794],[2411, 4795],[2410.11, 4800.36],[2410.11, 4800.37],[2408, 4803],[2404, 4815],[2403.32, 4819.1],[2401, 4822],[2397, 4834],[2396, 4840],[2396, 4841],[2396, 4842],[2397, 4848],[2401, 4860],[2405, 4865],[2410, 4869],[2422, 4873],[2428, 4874],[2434, 4873],[2442.99, 4870],[2445, 4870],[2448, 4871],[2449.29, 4871.43],[2450, 4872],[2462, 4876],[2463, 4876],[2469, 4877],[2473, 4877],[2479, 4878],[2483, 4878],[2489, 4879],[2490, 4879],[2496, 4878],[2508, 4874],[2513, 4870],[2517, 4865],[2521, 4853],[2522, 4847],[2522, 4846],[2522, 4845],[2521, 4839],[2520.67, 4838],[2520, 4834],[2518.34, 4829.02],[2518.33, 4829],[2518, 4827],[2514, 4815],[2513.43, 4814.28],[2511, 4806.99],[2511, 4805],[2511, 4804],[2511, 4803],[2511, 4800],[2511, 4799],[2511, 4798],[2511, 4796],[2511, 4795],[2511, 4793],[2511, 4791],[2511, 4790],[2511, 4789],[2511, 4787],[2511, 4786],[2511, 4784],[2511, 4782],[2511, 4779],[2511, 4777],[2511, 4773],[2511, 4771],[2511, 4768],[2511, 4767],[2511, 4764],[2511, 4763],[2510, 4757],[2510, 4756],[2510, 4754],[2510, 4753],[2510, 4752],[2509, 4746],[2507.33, 4741],[2507, 4739],[2503, 4727],[2499, 4722],[2494, 4718],[2482, 4714],[2481.29, 4713.88],[2481, 4713],[2480, 4710],[2479.67, 4709],[2479, 4705],[2478.33, 4703],[2478.33, 4702.98],[2478, 4701],[2475.34, 4693.01],[2475.27, 4692.59],[2475.27, 4692.58],[2474, 4691],[2472, 4688],[2471.57, 4686.71],[2471, 4686],[2470.86, 4685.57],[2470.85, 4685.56],[2469.78, 4684.22],[2469.77, 4684.21],[2467, 4682],[2463, 4677],[2462.86, 4676.57],[2462.85, 4676.56],[2460, 4673],[2459.86, 4672.57],[2459.85, 4672.56],[2457, 4669],[2456.86, 4668.57],[2456.85, 4668.56],[2454, 4665],[2453.57, 4663.71],[2453, 4663],[2452, 4660],[2451, 4657],[2450.71, 4656.14],[2449, 4654],[2448.5, 4652.5],[2448, 4652],[2447, 4651],[2443, 4646],[2442.86, 4645.58],[2442.86, 4645.57],[2440, 4642],[2439, 4639],[2438.57, 4637.71],[2438.01, 4637.34],[2438, 4637.33],[2437, 4637],[2436.99, 4637],[2434, 4636],[2429, 4632],[2428.56, 4631.44],[2428.54, 4631.42],[2428, 4631],[2424, 4626],[2421.57, 4618.72],[2421, 4618],[2420.57, 4616.71],[2420, 4616],[2419, 4613],[2418, 4611],[2417.12, 4608.36],[2415, 4608],[2412, 4608],[2406, 4607],[2403, 4606],[2396, 4606],[2390, 4605],[2374, 4605],[2368, 4604],[2367, 4603.67],[2363, 4603],[2354, 4600],[2351.01, 4599]]]},"properties":{"objectType":"annotation","classification":{"name":"Stroma","color":[150, 200, 150]}}},{"type":"Feature","id":"45d47651-d6db-4c05-9e09-cee42b2e891a","geometry":{"type":"Polygon","coordinates":[[[1859, 4609],[1859, 4613],[1859, 4615],[1859, 4618],[1859, 4620],[1859, 4625],[1859, 4627],[1859, 4631],[1859, 4636],[1859, 4637],[1859, 4641],[1859, 4643],[1859, 4647],[1859, 4650],[1859, 4652],[1859, 4655],[1859, 4657],[1859, 4660],[1859, 4662],[1859, 4665],[1859, 4668],[1859, 4670],[1859, 4673],[1859, 4675],[1859, 4678],[1859, 4680],[1859, 4683],[1859, 4685],[1859, 4688],[1859, 4689],[1859, 4692],[1859, 4694],[1859, 4697],[1859, 4698],[1859, 4701],[1859, 4703],[1859, 4707],[1859, 4711],[1859, 4712],[1859, 4715],[1859, 4719],[1859, 4721],[1859, 4724],[1859, 4726],[1859, 4728],[1860, 4734],[1860, 4736],[1860, 4737],[1861, 4740],[1862, 4744],[1863, 4750],[1863, 4752],[1863, 4754],[1864, 4757],[1864, 4759],[1864.67, 4763],[1866, 4767],[1866.67, 4771],[1868, 4775],[1868, 4779],[1868, 4781],[1868, 4783],[1869, 4786],[1869, 4790],[1869, 4791],[1869.55, 4792.64],[1870, 4793],[1871.29, 4793.43],[1872, 4794],[1884, 4798],[1886.01, 4798],[1895, 4801],[1901, 4802],[1902, 4802],[1906, 4807],[1911, 4811],[1923, 4815],[1929, 4816],[1941, 4816],[1947, 4817],[1951, 4817],[1955.01, 4817.67],[1956, 4818],[1962, 4819],[1965, 4820],[1966.29, 4820.43],[1967, 4821],[1970, 4822],[1979, 4825],[1982, 4826],[1988, 4827],[1994, 4827],[2000, 4828],[2007, 4828],[2013, 4827],[2025, 4823],[2030, 4819],[2034, 4814],[2038, 4802],[2039, 4796],[2039, 4795],[2039, 4794],[2038, 4788],[2038, 4786],[2035, 4777.01],[2035, 4777],[2035, 4776],[2035, 4775],[2035, 4773],[2035, 4772],[2034, 4766],[2034, 4764],[2034, 4763],[2034, 4762],[2033, 4756],[2032, 4753],[2032, 4752.98],[2032, 4752],[2032, 4750],[2031, 4744],[2030.67, 4743],[2030, 4739],[2029.67, 4738],[2029, 4734],[2029, 4732],[2026.67, 4725],[2026.22, 4722.33],[2029, 4714],[2029, 4713],[2029.63, 4709.21],[2033, 4705],[2033.55, 4703.36],[2034, 4703],[2034.42, 4702.46],[2034.44, 4702.44],[2035, 4702],[2035.42, 4701.46],[2035.44, 4701.44],[2036, 4701],[2036.89, 4699.89],[2038, 4699],[2038.42, 4698.46],[2038.44, 4698.44],[2039, 4698],[2043, 4693],[2043.09, 4692.73],[2044, 4692],[2045.78, 4689.78],[2048, 4688],[2048.42, 4687.46],[2048.44, 4687.44],[2049, 4687],[2053, 4682],[2057, 4670],[2058, 4664],[2058, 4662],[2058, 4661],[2057, 4655],[2053, 4643],[2049, 4638],[2048.46, 4637.58],[2048.44, 4637.56],[2048, 4637],[2046.35, 4635.68],[2046.33, 4635.67],[2045, 4634],[2040, 4630],[2038.71, 4629.57],[2038, 4629],[2037.58, 4628.86],[2037.57, 4628.86],[2034, 4626],[2031, 4625],[2029.71, 4624.57],[2029, 4624],[2024, 4620],[2012, 4620],[2006, 4619],[2003, 4619],[1997, 4618],[1996.01, 4617.67],[1992, 4617],[1991.01, 4616.67],[1987, 4616],[1981.01, 4614],[1976, 4614],[1970, 4613],[1961, 4613],[1955, 4612],[1926, 4612],[1920, 4610],[1917, 4610],[1911, 4609],[1859, 4609]]]},"properties":{"objectType":"annotation","classification":{"name":"Stroma","color":[150, 200, 150]}}}]}