{"type":"FeatureCollection","features":[{"type":"Feature","id":"8cf57cc2-0570-4c90-9bcc-e4cd6d96d18f","geometry":{"type":"Polygon","coordinates":[[[3919.51, 874],[3916, 875],[3901, 877],[3897.5, 877],[3894, 878],[3879, 880],[3876.5, 880],[3873, 881],[3858, 883],[3734, 883],[3722, 892],[3713, 904],[3706, 917],[3702, 931],[3700, 946],[3700, 949],[3700, 952],[3700.6, 956.48],[3700, 961],[3700, 961.51],[3699, 965],[3697.12, 979.07],[3696, 983],[3694, 998],[3694, 1001],[3694, 1004],[3694, 1007],[3694, 1010],[3694, 1013],[3694, 1016],[3694, 1019],[3694, 1022],[3694, 1025],[3694, 1028],[3694, 1031],[3694, 1034],[3696, 1049],[3698.62, 1058.16],[3698.63, 1058.19],[3699, 1061],[3703, 1075],[3710, 1088],[3719, 1100],[3731, 1109],[3744, 1116],[3745.69, 1116.48],[3749, 1114],[3762, 1107],[3773.85, 1103.61],[3780, 1099],[3785.9, 1095.83],[3785.91, 1095.82],[3795, 1089],[3798.54, 1087.1],[3798.55, 1087.09],[3804, 1083],[3817, 1076],[3824.3, 1073.91],[3826, 1073],[3826.91, 1072.74],[3832, 1070],[3832.91, 1069.74],[3838, 1067],[3838.91, 1066.74],[3844, 1064],[3851.3, 1061.91],[3853, 1061],[3860.3, 1058.91],[3862, 1058],[3862.91, 1057.74],[3868, 1055],[3877.43, 1052.3],[3878, 1052],[3885.3, 1049.91],[3887, 1049],[3901, 1045],[3903.78, 1044.63],[3903.81, 1044.63],[3913, 1042],[3921.4, 1040.88],[3921.44, 1040.88],[3928, 1039],[3930.78, 1038.63],[3930.81, 1038.63],[3940, 1036],[3948.35, 1034.89],[3950, 1034],[3957.3, 1031.91],[3959, 1031],[3966, 1029],[3974, 1023],[3981.13, 1019.16],[3988, 1010],[3995, 997],[3999, 983],[4001, 968],[3999, 953],[3995, 939],[3988, 926],[3985.46, 922.61],[3983, 914],[3976, 901],[3967, 889],[3955, 880],[3949, 880],[3934, 878],[3920, 874],[3919.51, 874]]]},"properties":{"objectType":"annotation","classification":{"name":"Dysplasia","color":[111, 20, 87]}}},{"type":"Feature","id":"9d817ee4-dc73-4d96-bce3-b1d4df15b07b","geometry":{"type":"Polygon","coordinates":[[[3987.12, 1014.32],[3984, 1016],[3983.09, 1016.26],[3978, 1019],[3977.09, 1019.26],[3972, 1022],[3971.09, 1022.26],[3966, 1025],[3965.09, 1025.26],[3964.11, 1025.79],[3955, 1027],[3941, 1031],[3928, 1038],[3916, 1047],[3911.84, 1052.55],[3911, 1053],[3910.09, 1053.26],[3905, 1056],[3904.09, 1056.26],[3899, 1059],[3898.09, 1059.26],[3893, 1062],[3892.09, 1062.26],[3887, 1065],[3879.7, 1067.09],[3878, 1068],[3877.09, 1068.26],[3872, 1071],[3864.7, 1073.09],[3863, 1074],[3862.09, 1074.26],[3857, 1077],[3843, 1081],[3842.62, 1081.05],[3839, 1083],[3829.57, 1085.7],[3829, 1086],[3821.7, 1088.09],[3820, 1089],[3812.7, 1091.09],[3811, 1092],[3803.7, 1094.09],[3802, 1095],[3801.09, 1095.26],[3796, 1098],[3795.09, 1098.26],[3790, 1101],[3789.09, 1101.26],[3784, 1104],[3770, 1108],[3767.19, 1108.38],[3758, 1111],[3750.3, 1112.03],[3746, 1120],[3742, 1134],[3740, 1149],[3740, 1152],[3742, 1167],[3746, 1181],[3753, 1194],[3755, 1196.67],[3755, 1198],[3755, 1201],[3755, 1204],[3755, 1207],[3757, 1222],[3761, 1236],[3761, 1237],[3761, 1240],[3763, 1255],[3764, 1258.49],[3764, 1259],[3764, 1262],[3764, 1265],[3764, 1268],[3764, 1271],[3764, 1274],[3764, 1277],[3764, 1280],[3764, 1283],[3764, 1286],[3764, 1289],[3764, 1292],[3764, 1295],[3764, 1298],[3764, 1301],[3764, 1304],[3766, 1319],[3770, 1333],[3777, 1346],[3786, 1358],[3798, 1367],[3811, 1374],[3825, 1378],[3840, 1380],[3849, 1380],[3864, 1378],[3878, 1374],[3891, 1367],[3903, 1358],[3915, 1349],[3920.44, 1344.92],[3920.45, 1344.91],[3924, 1343],[3927.37, 1340.46],[3927.38, 1340.46],[3936, 1338],[3941.09, 1335.26],[3942, 1335],[3943.7, 1334.09],[3951, 1332],[3964, 1325],[3969.44, 1320.92],[3969.45, 1320.91],[3973, 1319],[3985, 1310],[3986.29, 1308.29],[3988, 1307],[3991, 1304],[3994, 1300],[3995.29, 1298.29],[3997, 1297],[4006, 1285],[4007.29, 1283.29],[4009, 1282],[4010.29, 1280.29],[4012, 1279],[4013.29, 1277.29],[4015, 1276],[4023.21, 1265.06],[4022, 1256],[4022, 1253],[4022, 1250],[4022, 1246],[4022, 1243],[4022, 1240],[4022, 1237],[4022, 1234],[4022, 1231],[4022, 1228],[4022, 1225.51],[4021, 1222],[4019, 1207],[4019, 1204],[4019, 1201],[4019, 1198],[4019, 1195],[4019, 1192.51],[4018, 1189],[4017, 1181.52],[4015.3, 1175.57],[4015, 1175],[4011, 1161],[4010.63, 1158.19],[4010.62, 1158.16],[4008, 1149],[4006, 1134],[4006, 1131.51],[4005, 1128],[4003, 1113],[4003, 1110],[4003, 1107],[4003, 1104],[4003, 1101],[4003, 1098],[4003, 1095],[4003, 1092],[4003, 1089],[4003, 1086],[4003, 1083],[4003, 1080],[4003, 1077],[4003, 1074],[4003, 1071],[4003, 1068],[4003, 1065],[4003, 1062],[4003, 1059],[4003, 1055],[4003, 1052],[4003, 1049],[4003, 1046],[4003, 1043],[4003, 1040],[4003, 1037],[4003, 1034],[4003, 1031],[4003, 1028],[4003, 1025],[4003, 1022],[4003, 1021.4],[3993, 1016],[3987.12, 1014.32]]]},"properties":{"objectType":"annotation","classification":{"name":"Stroma","color":[150, 200, 150]}}}]}